[
    {
        "Altitude(m)": 558436.8809404975,
        "Argument of Periapsis(deg)": 0.0,
        "Eccentricity": 0.0,
        "Inclination(deg)": 53.0,
        "Latitude(deg)": 46.73405535179688,
        "Longitude(deg)": 52.259885114780914,
        "Mean Anomaly(deg)": 114.5455,
        "RAAN(deg)": 25.0,
        "Satellite Name": "Starlink Shell 1 117",
        "Satellite Number": 117,
        "Semi-Major Axis(m)": 6931778.249405717,
        "Time(s)": 0
    },
    {
        "Altitude(m)": 558367.3329452316,
        "Argument of Periapsis(deg)": 0.00034857847951123687,
        "Eccentricity": 0.0,
        "Inclination(deg)": 53.0,
        "Latitude(deg)": 46.427979796445676,
        "Longitude(deg)": 53.0129110414903,
        "Mean Anomaly(deg)": 115.17233120355672,
        "RAAN(deg)": 24.999481229922527,
        "Satellite Name": "Starlink Shell 1 117",
        "Satellite Number": 117,
        "Semi-Major Axis(m)": 6931778.249405717,
        "Time(s)": 10
    },
    {
        "Altitude(m)": 558296.651180197,
        "Argument of Periapsis(deg)": 0.0006971569590224737,
        "Eccentricity": 0.0,
        "Inclination(deg)": 53.0,
        "Latitude(deg)": 46.1164339322363,
        "Longitude(deg)": 53.75702421042019,
        "Mean Anomaly(deg)": 115.79916240711347,
        "RAAN(deg)": 24.998962459845053,
        "Satellite Name": "Starlink Shell 1 117",
        "Satellite Number": 117,
        "Semi-Major Axis(m)": 6931778.249405717,
        "Time(s)": 20
    },
    {
        "Altitude(m)": 558224.8795328905,
        "Argument of Periapsis(deg)": 0.0010457354385337105,
        "Eccentricity": 0.0,
        "Inclination(deg)": 53.0,
        "Latitude(deg)": 45.79953641523634,
        "Longitude(deg)": 54.4922678245835,
        "Mean Anomaly(deg)": 116.42599361067016,
        "RAAN(deg)": 24.998443689767583,
        "Satellite Name": "Starlink Shell 1 117",
        "Satellite Number": 117,
        "Semi-Major Axis(m)": 6931778.249405717,
        "Time(s)": 30
    },
    {
        "Altitude(m)": 558152.0626497861,
        "Argument of Periapsis(deg)": 0.0013943139180449475,
        "Eccentricity": 0.0,
        "Inclination(deg)": 53.0,
        "Latitude(deg)": 45.47740459656834,
        "Longitude(deg)": 55.21869347077782,
        "Mean Anomaly(deg)": 117.05282481422688,
        "RAAN(deg)": 24.99792491969011,
        "Satellite Name": "Starlink Shell 1 117",
        "Satellite Number": 117,
        "Semi-Major Axis(m)": 6931778.249405717,
        "Time(s)": 40
    },
    {
        "Altitude(m)": 558078.2459141399,
        "Argument of Periapsis(deg)": 0.0017428923975561844,
        "Eccentricity": 0.0,
        "Inclination(deg)": 53.0,
        "Latitude(deg)": 45.150154432992586,
        "Longitude(deg)": 55.93635958422188,
        "Mean Anomaly(deg)": 117.67965601778357,
        "RAAN(deg)": 24.997406149612633,
        "Satellite Name": "Starlink Shell 1 117",
        "Satellite Number": 117,
        "Semi-Major Axis(m)": 6931778.249405717,
        "Time(s)": 50
    },
    {
        "Altitude(m)": 558003.475423363,
        "Argument of Periapsis(deg)": 0.002091470877067421,
        "Eccentricity": 0.0,
        "Inclination(deg)": 53.0,
        "Latitude(deg)": 44.817900406787466,
        "Longitude(deg)": 56.64533143880284,
        "Mean Anomaly(deg)": 118.3064872213403,
        "RAAN(deg)": 24.996887379535163,
        "Satellite Name": "Starlink Shell 1 117",
        "Satellite Number": 117,
        "Semi-Major Axis(m)": 6931778.249405717,
        "Time(s)": 60
    },
    {
        "Altitude(m)": 557927.7979660399,
        "Argument of Periapsis(deg)": 0.0024400493565786582,
        "Eccentricity": 0.0,
        "Inclination(deg)": 53.0,
        "Latitude(deg)": 44.48075545452891,
        "Longitude(deg)": 57.34568115152472,
        "Mean Anomaly(deg)": 118.93331842489701,
        "RAAN(deg)": 24.996368609457694,
        "Satellite Name": "Starlink Shell 1 117",
        "Satellite Number": 117,
        "Semi-Major Axis(m)": 6931778.249405717,
        "Time(s)": 70
    },
    {
        "Altitude(m)": 557851.2609985858,
        "Argument of Periapsis(deg)": 0.002788627836089895,
        "Eccentricity": 0.0,
        "Inclination(deg)": 53.0,
        "Latitude(deg)": 44.138830904356254,
        "Longitude(deg)": 58.03748618951115,
        "Mean Anomaly(deg)": 119.56014962845373,
        "RAAN(deg)": 24.995849839380217,
        "Satellite Name": "Starlink Shell 1 117",
        "Satellite Number": 117,
        "Semi-Major Axis(m)": 6931778.249405717,
        "Time(s)": 80
    },
    {
        "Altitude(m)": 557773.9126215088,
        "Argument of Periapsis(deg)": 0.0031372063156011316,
        "Eccentricity": 0.0,
        "Inclination(deg)": 53.0,
        "Latitude(deg)": 43.792236421307045,
        "Longitude(deg)": 58.720829406316874,
        "Mean Anomaly(deg)": 120.18698083201042,
        "RAAN(deg)": 24.995331069302747,
        "Satellite Name": "Starlink Shell 1 117",
        "Satellite Number": 117,
        "Semi-Major Axis(m)": 6931778.249405717,
        "Time(s)": 90
    },
    {
        "Altitude(m)": 557695.8015553625,
        "Argument of Periapsis(deg)": 0.0034857847951123688,
        "Eccentricity": 0.0,
        "Inclination(deg)": 53.0,
        "Latitude(deg)": 43.44107996029278,
        "Longitude(deg)": 59.395799095472604,
        "Mean Anomaly(deg)": 120.81381203556715,
        "RAAN(deg)": 24.99481229922527,
        "Satellite Name": "Starlink Shell 1 117",
        "Satellite Number": 117,
        "Semi-Major Axis(m)": 6931778.249405717,
        "Time(s)": 100
    },
    {
        "Altitude(m)": 557616.9771163425,
        "Argument of Periapsis(deg)": 0.003834363274623606,
        "Eccentricity": 0.0,
        "Inclination(deg)": 53.0,
        "Latitude(deg)": 43.08546772628617,
        "Longitude(deg)": 60.062487548992706,
        "Mean Anomaly(deg)": 121.44064323912389,
        "RAAN(deg)": 24.9942935291478,
        "Satellite Name": "Starlink Shell 1 117",
        "Satellite Number": 117,
        "Semi-Major Axis(m)": 6931778.249405717,
        "Time(s)": 110
    },
    {
        "Altitude(m)": 557537.4891915523,
        "Argument of Periapsis(deg)": 0.004182941754134842,
        "Eccentricity": 0.0,
        "Inclination(deg)": 53.0,
        "Latitude(deg)": 42.72550414129607,
        "Longitude(deg)": 60.72099114703323,
        "Mean Anomaly(deg)": 122.06747444268059,
        "RAAN(deg)": 24.99377475907033,
        "Satellite Name": "Starlink Shell 1 117",
        "Satellite Number": 117,
        "Semi-Major Axis(m)": 6931778.249405717,
        "Time(s)": 120
    },
    {
        "Altitude(m)": 557457.3882139688,
        "Argument of Periapsis(deg)": 0.004531520233646079,
        "Eccentricity": 0.0,
        "Inclination(deg)": 53.0,
        "Latitude(deg)": 42.361291817707006,
        "Longitude(deg)": 61.37141046609796,
        "Mean Anomaly(deg)": 122.6943056462373,
        "RAAN(deg)": 24.993255988992853,
        "Satellite Name": "Starlink Shell 1 117",
        "Satellite Number": 117,
        "Semi-Major Axis(m)": 6931778.249405717,
        "Time(s)": 130
    },
    {
        "Altitude(m)": 557376.7251370895,
        "Argument of Periapsis(deg)": 0.0048800987131573164,
        "Eccentricity": 0.0,
        "Inclination(deg)": 53.0,
        "Latitude(deg)": 41.992931537565966,
        "Longitude(deg)": 62.01384889305255,
        "Mean Anomaly(deg)": 123.321136849794,
        "RAAN(deg)": 24.992737218915384,
        "Satellite Name": "Starlink Shell 1 117",
        "Satellite Number": 117,
        "Semi-Major Axis(m)": 6931778.249405717,
        "Time(s)": 140
    },
    {
        "Altitude(m)": 557295.55140929,
        "Argument of Periapsis(deg)": 0.005228677192668553,
        "Eccentricity": 0.0,
        "Inclination(deg)": 53.0,
        "Latitude(deg)": 41.62052223741439,
        "Longitude(deg)": 62.648412770702684,
        "Mean Anomaly(deg)": 123.94796805335073,
        "RAAN(deg)": 24.992218448837907,
        "Satellite Name": "Starlink Shell 1 117",
        "Satellite Number": 117,
        "Semi-Major Axis(m)": 6931778.249405717,
        "Time(s)": 150
    },
    {
        "Altitude(m)": 557213.9189479168,
        "Argument of Periapsis(deg)": 0.00557725567217979,
        "Eccentricity": 0.0,
        "Inclination(deg)": 53.0,
        "Latitude(deg)": 41.244160998267915,
        "Longitude(deg)": 63.275211561956795,
        "Mean Anomaly(deg)": 124.57479925690745,
        "RAAN(deg)": 24.991699678760437,
        "Satellite Name": "Starlink Shell 1 117",
        "Satellite Number": 117,
        "Semi-Major Axis(m)": 6931778.249405717,
        "Time(s)": 160
    },
    {
        "Altitude(m)": 557131.8801130885,
        "Argument of Periapsis(deg)": 0.0059258341516910265,
        "Eccentricity": 0.0,
        "Inclination(deg)": 53.0,
        "Latitude(deg)": 40.86394304035971,
        "Longitude(deg)": 63.89435651949308,
        "Mean Anomaly(deg)": 125.20163046046417,
        "RAAN(deg)": 24.99118090868296,
        "Satellite Name": "Starlink Shell 1 117",
        "Satellite Number": 117,
        "Semi-Major Axis(m)": 6931778.249405717,
        "Time(s)": 170
    },
    {
        "Altitude(m)": 557049.4876812538,
        "Argument of Periapsis(deg)": 0.006274412631202263,
        "Eccentricity": 0.0,
        "Inclination(deg)": 53.0,
        "Latitude(deg)": 40.47996172228177,
        "Longitude(deg)": 64.50596088639304,
        "Mean Anomaly(deg)": 125.82846166402088,
        "RAAN(deg)": 24.99066213860549,
        "Satellite Name": "Starlink Shell 1 117",
        "Satellite Number": 117,
        "Semi-Major Axis(m)": 6931778.249405717,
        "Time(s)": 180
    }
]